OBJECT_NAME,OBJECT_ID,EPOCH,MEAN_MOTION,ECCENTRICITY,INCLINATION,RA_OF_ASC_NODE,ARG_OF_PERICENTER,MEAN_ANOMALY,EPHEMERIS_TYPE,CLASSIFICATION_TYPE,NORAD_CAT_ID,ELEMENT_SET_NO,REV_AT_EPOCH,BSTAR,MEAN_MOTION_DOT,MEAN_MOTION_DDOT
GLOBALSTAR M069,2007-020C,2026-06-15T23:46:30.298080,12.23471118,.0002363,52.0028,255.5140,145.4957,25.7236,0,U,31573,999,87865,.37881E-3,-.52E-6,0
GLOBALSTAR M072,2007-020D,2026-06-16T02:49:05.876832,11.91658407,.0001414,51.9924,103.0930,329.6442,43.6351,0,U,31574,999,87485,-.26589E-3,-.103E-5,0
GLOBALSTAR M066,2007-048C,2026-06-16T00:13:01.723008,12.30387719,.0005474,51.9604,61.2943,41.4074,331.5492,0,U,32265,999,86008,-.44574E-3,-.147E-5,0
GLOBALSTAR M079,2010-054A,2026-06-16T02:18:37.167264,12.62266059,.0000692,52.0033,111.9905,21.3125,351.6895,0,U,37188,999,72241,-.79056E-4,-.118E-5,0
GLOBALSTAR M074,2010-054B,2026-06-16T01:24:00.919008,12.62268380,.000052,52.0007,111.3707,50.5589,30.2720,0,U,37189,999,72301,-.11543E-3,-.124E-5,0
GLOBALSTAR M076,2010-054C,2026-06-16T03:34:51.440736,12.62261772,.0000716,52.0020,111.2971,41.4149,332.6090,0,U,37190,999,72274,-.1179E-3,-.125E-5,0
GLOBALSTAR M077,2010-054D,2026-06-16T04:25:25.685184,11.67547798,.0002752,51.9920,181.8415,170.7608,265.5951,0,U,37191,999,72102,.23781E-4,-.77E-6,0
GLOBALSTAR M075,2010-054E,2026-06-16T05:47:48.978240,12.62267369,.0000148,51.9922,153.0719,20.9189,352.7663,0,U,37192,999,72182,-.10845E-3,-.123E-5,0
GLOBALSTAR M073,2010-054F,2026-06-16T00:06:08.082144,12.62262106,.0000907,52.0070,67.8932,45.3174,328.1165,0,U,37193,999,72378,.39923E-5,-.103E-5,0
GLOBALSTAR M083,2011-033A,2026-06-15T20:36:30.574080,12.62263032,.00009185,51.9878,16.5671,65.1205,307.9487,0,U,37739,999,69278,.54167346E-4,-.94E-6,0
GLOBALSTAR M088,2011-033B,2026-06-15T12:44:12.435936,12.62268684,.00007324,52.0221,283.9914,124.3899,315.8519,0,U,37740,999,68828,.81592072E-4,-.89E-6,0
GLOBALSTAR M091,2011-033C,2026-06-15T23:01:49.376064,12.62263889,.0000327,51.9992,245.6535,151.6671,19.5038,0,U,37741,999,68912,.14814E-3,-.77E-6,0
GLOBALSTAR M085,2011-033D,2026-06-15T20:48:42.564384,12.62264142,.00001107,52.0102,197.2251,273.2559,257.7377,0,U,37742,999,68962,.91468302E-4,-.87E-6,0
GLOBALSTAR M081,2011-033E,2026-06-15T09:40:59.139264,12.62265042,.00001302,51.9936,201.0749,112.9478,349.5413,0,U,37743,999,68971,.15610338E-3,-.76E-6,0
GLOBALSTAR M089,2011-033F,2026-06-16T05:09:44.786016,12.62267216,.0000353,51.9906,152.7614,86.9383,286.4268,0,U,37744,999,69066,-.60606E-4,-.115E-5,0
GLOBALSTAR M084,2011-080A,2026-06-15T21:52:52.868064,12.62267495,.0001079,52.0026,21.1651,83.0171,291.0132,0,U,38040,999,66860,.40987E-4,-.96E-6,0
GLOBALSTAR M080,2011-080B,2026-06-15T21:11:10.709376,12.62269374,.00003717,52.0080,22.9714,69.8191,302.5829,0,U,38041,999,66872,.82689373E-4,-.89E-6,0
GLOBALSTAR M082,2011-080C,2026-06-15T16:13:06.299904,12.62263550,.00005437,52.0102,339.1022,95.0224,346.3713,0,U,38042,999,66940,.30052839E-4,-.98E-6,0
GLOBALSTAR M092,2011-080D,2026-06-16T00:45:19.660320,12.62266977,.0000681,52.0094,68.4157,61.0111,316.5702,0,U,38043,999,66790,.40215E-4,-.97E-6,0
GLOBALSTAR M090,2011-080E,2026-06-15T18:23:48.464160,12.62269067,.00007986,52.0143,332.7812,89.9015,283.1384,0,U,38044,999,66953,.27357338E-4,-.99E-6,0
GLOBALSTAR M086,2011-080F,2026-06-16T05:15:34.731072,12.62286675,.0001674,51.9915,331.3351,66.2897,105.4460,0,U,38045,999,66953,.31555E-4,-.98E-6,0
GLOBALSTAR M097,2013-005A,2026-06-15T21:30:07.346304,12.62247234,.0000307,52.0047,247.2680,128.1118,231.9776,0,U,39072,999,61674,.38227E-4,-.97E-6,0
GLOBALSTAR M093,2013-005B,2026-06-15T22:45:36.308160,12.62265942,.0000202,52.0099,240.4544,94.8134,265.2756,0,U,39073,999,61670,.18097E-3,-.71E-6,0
GLOBALSTAR M094,2013-005C,2026-06-16T02:33:30.533760,12.62268592,.0000376,51.9928,154.0890,358.4256,1.6609,0,U,39074,999,61833,-.11651E-3,-.125E-5,0
GLOBALSTAR M096,2013-005D,2026-06-15T19:16:48.778176,12.62265591,.00000429,52.0052,203.8140,234.2185,125.8678,0,U,39075,999,61721,.87981122E-4,-.88E-6,0
GLOBALSTAR M078,2013-005E,2026-06-16T00:20:01.449024,12.62257696,.0000506,51.9888,287.1835,222.9321,137.1506,0,U,39076,999,61586,-.41095E-3,-.177E-5,0
GLOBALSTAR M095,2013-005F,2026-06-16T00:58:32.844288,12.62263432,.0000252,52.0092,284.7050,131.1351,228.9537,0,U,39077,999,61572,.94597E-4,-.87E-6,0
GLOBALSTAR M087,2022-064A,2026-06-15T23:23:35.706048,12.62269011,.0000736,52.0007,66.1437,36.3196,323.7721,0,U,52888,999,19098,.3088E-4,-.98E-6,0
