GLOBALSTAR M069         
1 31573U 07020C   26166.99062845 -.00000052  00000+0  37881-3 0  9999
2 31573  52.0028 255.5140 0002363 145.4957  25.7236 12.23471118878658
GLOBALSTAR M072         
1 31574U 07020D   26167.11742913 -.00000103  00000+0 -26589-3 0  9997
2 31574  51.9924 103.0930 0001414 329.6442  43.6351 11.91658407874854
GLOBALSTAR M066         
1 32265U 07048C   26167.00904772 -.00000147  00000+0 -44574-3 0  9998
2 32265  51.9604  61.2943 0005474  41.4074 331.5492 12.30387719860080
GLOBALSTAR M079         
1 37188U 10054A   26167.09626351 -.00000118  00000+0 -79056-4 0  9993
2 37188  52.0033 111.9905 0000692  21.3125 351.6895 12.62266059722411
GLOBALSTAR M074         
1 37189U 10054B   26167.05834397 -.00000124  00000+0 -11543-3 0  9994
2 37189  52.0007 111.3707 0000520  50.5589  30.2720 12.62268380723018
GLOBALSTAR M076         
1 37190U 10054C   26167.14920649 -.00000125  00000+0 -11790-3 0  9997
2 37190  52.0020 111.2971 0000716  41.4149 332.6090 12.62261772722741
GLOBALSTAR M077         
1 37191U 10054D   26167.18432506 -.00000077  00000+0  23781-4 0  9991
2 37191  51.9920 181.8415 0002752 170.7608 265.5951 11.67547798721022
GLOBALSTAR M075         
1 37192U 10054E   26167.24153910 -.00000123  00000+0 -10845-3 0  9997
2 37192  51.9922 153.0719 0000148  20.9189 352.7663 12.62267369721826
GLOBALSTAR M073         
1 37193U 10054F   26167.00426021 -.00000103  00000+0  39923-5 0  9995
2 37193  52.0070  67.8932 0000907  45.3174 328.1165 12.62262106723785
GLOBALSTAR M083         
1 37739U 11033A   26166.85868720 -.00000094  00000+0  54167-4 0  9992
2 37739  51.9878  16.5671 0000918  65.1205 307.9487 12.62263032692789
GLOBALSTAR M088         
1 37740U 11033B   26166.53069949 -.00000089  00000+0  81592-4 0  9991
2 37740  52.0221 283.9914 0000732 124.3899 315.8519 12.62268684688288
GLOBALSTAR M091         
1 37741U 11033C   26166.95959926 -.00000077  00000+0  14814-3 0  9990
2 37741  51.9992 245.6535 0000327 151.6671  19.5038 12.62263889689127
GLOBALSTAR M085         
1 37742U 11033D   26166.86715931 -.00000087  00000+0  91468-4 0  9999
2 37742  52.0102 197.2251 0000110 273.2559 257.7377 12.62264142689626
GLOBALSTAR M081         
1 37743U 11033E   26166.40346226 -.00000076  00000+0  15610-3 0  9999
2 37743  51.9936 201.0749 0000130 112.9478 349.5413 12.62265042689718
GLOBALSTAR M089         
1 37744U 11033F   26167.21510169 -.00000115  00000+0 -60606-4 0  9990
2 37744  51.9906 152.7614 0000353  86.9383 286.4268 12.62267216690669
GLOBALSTAR M084         
1 38040U 11080A   26166.91172301 -.00000096  00000+0  40987-4 0  9997
2 38040  52.0026  21.1651 0001079  83.0171 291.0132 12.62267495668603
GLOBALSTAR M080         
1 38041U 11080B   26166.88276284 -.00000089  00000+0  82689-4 0  9996
2 38041  52.0080  22.9714 0000371  69.8191 302.5829 12.62269374668723
GLOBALSTAR M082         
1 38042U 11080C   26166.67576736 -.00000098  00000+0  30053-4 0  9997
2 38042  52.0102 339.1022 0000543  95.0224 346.3713 12.62263550669407
GLOBALSTAR M092         
1 38043U 11080D   26167.03147755 -.00000097  00000+0  40215-4 0  9994
2 38043  52.0094  68.4157 0000681  61.0111 316.5702 12.62266977667906
GLOBALSTAR M090         
1 38044U 11080E   26166.76653315 -.00000099  00000+0  27357-4 0  9992
2 38044  52.0143 332.7812 0000798  89.9015 283.1384 12.62269067669537
GLOBALSTAR M086         
1 38045U 11080F   26167.21915198 -.00000098  00000+0  31555-4 0  9998
2 38045  51.9915 331.3351 0001674  66.2897 105.4460 12.62286675669531
GLOBALSTAR M097         
1 39072U 13005A   26166.89591836 -.00000097  00000+0  38227-4 0  9992
2 39072  52.0047 247.2680 0000307 128.1118 231.9776 12.62247234616744
GLOBALSTAR M093         
1 39073U 13005B   26166.94833690 -.00000071  00000+0  18097-3 0  9990
2 39073  52.0099 240.4544 0000202  94.8134 265.2756 12.62265942616707
GLOBALSTAR M094         
1 39074U 13005C   26167.10660340 -.00000125  00000+0 -11651-3 0  9990
2 39074  51.9928 154.0890 0000376 358.4256   1.6609 12.62268592618331
GLOBALSTAR M096         
1 39075U 13005D   26166.80334234 -.00000088  00000+0  87981-4 0  9994
2 39075  52.0052 203.8140 0000042 234.2185 125.8678 12.62265591617212
GLOBALSTAR M078         
1 39076U 13005E   26167.01390566 -.00000177  00000+0 -41095-3 0  9994
2 39076  51.9888 287.1835 0000506 222.9321 137.1506 12.62257696615867
GLOBALSTAR M095         
1 39077U 13005F   26167.04065792 -.00000087  00000+0  94597-4 0  9993
2 39077  52.0092 284.7050 0000252 131.1351 228.9537 12.62263432615724
GLOBALSTAR M087         
1 52888U 22064A   26166.97471882 -.00000098  00000+0  30880-4 0  9992
2 52888  52.0007  66.1437 0000736  36.3196 323.7721 12.62269011190980
